0 DELTA 1 DEB
1 12185U 78026AA  19276.69235353 +.00000123 +00000-0 +88021-4 0  9990
2 12185 099.1162 173.7914 0096317 352.9316 059.2180 14.12527073983348
0 DELTA 1 DEB
1 12189U 78026AE  19276.76360877 -.00000066 +00000-0 -17176-4 0  9993
2 12189 098.9602 345.0667 0067367 239.0272 243.0859 13.93092439293774
0 DELTA 1 DEB
1 12189U 78026AE  19277.76906265 -.00000014  00000-0  22282-4 0  9997
2 12189  98.9601 346.0402 0067412 236.2491 245.5975 13.93092478294213
0 DELTA 1 DEB
1 12190U 78026AF  19277.88531406 -.00000048  00000-0 -42111-5 0  9995
2 12190  98.7491 249.9611 0013404 190.3314 223.0130 14.00984317974231
0 DELTA 1 DEB
1 12193U 78026AJ  19276.79422983 +.00001232 +00000-0 +10198-2 0  9997
2 12193 098.8872 219.7710 0268685 286.2713 070.9040 13.75393644913470
0 DELTA 1 DEB
1 12193U 78026AJ  19277.37618977  .00001210  00000-0  10019-2 0  9990
2 12193  98.8872 220.3145 0268582 284.7175  72.4353 13.75394988913758
0 DELTA 1 DEB
1 12194U 78026AK  19276.93012857  .00002718  00000-0  30311-3 0  9999
2 12194  98.9264 258.4306 0028057 319.7454  40.1681 14.87804326 25471
0 DELTA 1 DEB
1 12194U 78026AK  19276.93012857 +.00002718 +00000-0 +30311-3 0  9999
2 12194 098.9264 258.4306 0028057 319.7454 040.1681 14.87804326025213
0 DELTA 1 DEB
1 12195U 78026AL  19276.94759442 +.00000069 +00000-0 +84543-4 0  9993
2 12195 098.7646 303.6443 0060395 288.1720 189.1998 13.92733598962488
0 DELTA 1 DEB
1 12195U 78026AL  19277.07984726  .00000074  00000-0  87967-4 0  9992
2 12195  98.7646 303.7695 0060396 287.8019 132.3009 13.92733632962770
0 DELTA 1 DEB
1 12198U 78026AP  19277.54840283 -.00000121  00000-0 -47320-4 0  9990
2 12198  99.3446 130.4712 0123214 164.4016 196.0997 14.00315502968646
0 DELTA 1 DEB
1 12198U 78026AP  19276.83388117 -.00000119 +00000-0 -46191-4 0  9996
2 12198 099.3447 129.7407 0123171 166.3438 194.1108 14.00315595968285
0 DELTA 1 DEB
1 12200U 78026AR  19276.93188949 +.00000028 +00000-0 +25351-4 0  9994
2 12200 098.4166 253.7570 0113067 161.7982 252.6110 14.29937105014027
0 DELTA 1 DEB
1 12203U 78026AU  19276.95351557 +.00000143 +00000-0 +64659-4 0  9998
2 12203 098.5591 258.6824 0064672 251.5799 172.9188 14.34668151012687
0 DELTA 1 DEB
1 12203U 78026AU  19277.85942753  .00000146  00000-0  65654-4 0  9991
2 12203  98.5593 259.5802 0064680 248.8482 171.8248 14.34668461 13075
0 DELTA 1 DEB
1 12204U 78026AV  19276.89340358 +.00000067 +00000-0 +43211-4 0  9995
2 12204 098.6587 256.4118 0082296 169.6825 190.6069 14.27947436007998
0 DELTA 1 DEB
1 12209U 78026BA  19276.92886799 +.00000166 +00000-0 +74332-4 0  9996
2 12209 098.6190 262.4684 0061591 077.0854 007.6948 14.33398149996962
0 DELTA 1 DEB
1 12212U 78026BD  19276.84229799 -.00000036 +00000-0 +50848-5 0  9996
2 12212 098.9721 357.6709 0026984 177.2622 301.8456 13.97610957969985
0 DELTA 1 DEB
1 12212U 78026BD  19277.84427032 -.00000091  00000-0 -33938-4 0  9999
2 12212  98.9719 358.6496 0027047 174.6023 303.0718 13.97610987970398
0 DELTA 1 DEB
1 12216U 78026BH  19276.88213974 +.00000512 +00000-0 +34990-3 0  9998
2 12216 098.8826 051.9180 0203702 018.8166 342.0386 13.94404338952026
0 DELTA 1 DEB
1 12217U 78026BJ  19276.88450712 +.00000222 +00000-0 +12614-3 0  9999
2 12217 098.7909 242.7641 0021408 333.1573 079.6653 14.19550622992666
0 DELTA 1 DEB
1 12217U 78026BJ  19277.46124191  .00000218  00000-0  12437-3 0  9991
2 12217  98.7911 243.3367 0021374 331.4773 147.0246 14.19550886992958
0 DELTA 1 DEB
1 12218U 78026BK  19276.88860895 -.00000163 +00000-0 -82517-4 0  9993
2 12218 099.3858 060.1709 0052392 339.1985 142.8830 13.96938494967699
0 DELTA 1 DEB
1 12222U 78026BP  19276.80442187 +.00000036 +00000-0 +61287-4 0  9998
2 12222 098.9128 225.4012 0071512 322.4868 037.1314 13.91259973960781
0 DELTA 1 DEB
1 12222U 78026BP  19277.81124639  .00000011  00000-0  41852-4 0  9998
2 12222  98.9130 226.3681 0071466 319.7239  39.8640 13.91260126961183
0 DELTA 1 DEB
1 12223U 78026BQ  19277.85929874  .00000104  00000-0  94244-4 0  9993
2 12223  99.0934 246.7330 0041468  34.5197 325.8650 14.03501186979747
0 DELTA 1 DEB
1 12223U 78026BQ  19276.86124930 +.00000045 +00000-0 +56948-4 0  9996
2 12223 099.0931 245.7352 0041526 037.2682 323.1353 14.03500938979397
0 DELTA 1 DEB
1 12225U 78026BS  19276.87381421 -.00000009 +00000-0 +23470-4 0  9994
2 12225 099.3123 128.4368 0036860 251.5763 230.2211 14.05998177975930
0 DELTA 1 DEB
1 12225U 78026BS  19277.15848473 -.00000019  00000-0  17082-4 0  9994
2 12225  99.3123 128.7294 0036860 250.7734 231.1244 14.05998227976258
0 DELTA 1 DEB
1 12226U 78026BT  19276.73284305 +.00001643 +00000-0 +71783-3 0  9996
2 12226 098.8771 300.3775 0154339 156.4430 204.3913 14.18990570940209
0 DELTA 1 DEB
1 12227U 78026BU  19276.72492747 +.00000323 +00000-0 +51242-4 0  9990
2 12227 098.7361 200.8851 0096633 072.7556 288.4199 14.76936266037071
0 DELTA 1 DEB
1 12227U 78026BU  19277.33465655  .00000324  00000-0  51426-4 0  9991
2 12227  98.7362 201.5449 0096624  70.8550 290.3087 14.76936746 57934
0 DELTA 1 DEB
1 12230U 78026BX  19277.47682768  .00000423  00000-0  80709-4 0  9992
2 12230  97.8411 287.1025 0071373  58.5384 302.2771 14.67160410 40151
0 DELTA 1 DEB
1 12230U 78026BX  19276.72663085 +.00000432 +00000-0 +82260-4 0  9994
2 12230 097.8410 286.3846 0071409 060.8847 299.9482 14.67159733019582
0 DELTA 1 DEB
1 12234U 78026CB  19276.89134803 -.00000019 +00000-0 +15823-4 0  9990
2 12234 099.0102 237.7640 0029338 032.6475 030.1365 14.03029362978547
0 DELTA 1 DEB
1 12234U 78026CB  19276.89134803 -.00000019  00000-0  15823-4 0  9990
2 12234  99.0102 237.7640 0029338  32.6475  30.1365 14.03029362978750
0 DELTA 1 DEB
1 12236U 78026CD  19276.83208378 +.00000257 +00000-0 +22106-3 0  9999
2 12236 098.8802 216.0927 0221145 127.1039 252.3700 13.83890948940742
0 DELTA 1 DEB
1 12237U 78026CE  19276.77196430 +.00000755 +00000-0 +57243-3 0  9991
2 12237 098.7987 112.1124 0299206 161.4243 199.8116 13.77467158906735
0 DELTA 1 DEB
1 12237U 78026CE  19277.13515727  .00000726  00000-0  55177-3 0  9998
2 12237  98.7987 112.4495 0299173 160.4447 200.8475 13.77467534907041
0 DELTA 1 DEB
1 12242U 78026CK  19276.54482523 -.00000025 +00000-0 +11246-4 0  9998
2 12242 098.6993 283.1612 0068089 175.6752 184.5015 13.96804065967439
0 DELTA 1 DEB
1 12242U 78026CK  19277.47604131 -.00000079  00000-0 -27221-4 0  9992
2 12242  98.6992 284.0423 0068165 173.1230 187.0885 13.96804087967827
0 DELTA 1 DEB
1 12246U 78026CP  19277.51647383  .00000472  00000-0  33415-3 0  9993
2 12246  99.3056  96.3719 0056000 246.4242 183.7275 14.02220449974752
0 DELTA 1 DEB
1 12246U 78026CP  19276.72973704 +.00000453 +00000-0 +32247-3 0  9995
2 12246 099.3055 095.5688 0055983 248.6247 172.2467 14.02219597974427
0 DELTA 1 DEB
1 12250U 78026CT  19276.93302490 +.00000176 +00000-0 +93627-4 0  9993
2 12250 098.7489 252.5113 0024100 351.8018 065.6973 14.25239563998753
0 DELTA 1 DEB
1 12255U 78026CY  19276.93084545 +.00000071 +00000-0 +75129-4 0  9997
2 12255 098.6837 268.5189 0015021 006.8500 023.2613 14.00849432344176
0 DELTA 1 DEB
1 12256U 78026CZ  19276.89902821 +.00000617 +00000-0 +35194-3 0  9992
2 12256 099.0886 247.2775 0098880 010.0111 350.2999 14.11047635966931
0 DELTA 1 DEB
1 12257U 78026DA  19276.62128960 -.00000320 +00000-0 -16943-3 0  9992
2 12257 099.3324 150.9814 0102542 185.2770 174.7323 14.02633932972874
0 DELTA 1 DEB
1 12262U 78026DF  19276.93127045 +.00000642 +00000-0 +39069-3 0  9994
2 12262 098.8586 038.7992 0110569 271.8924 211.5120 14.06740732959157
0 DELTA 1 DEB
1 12262U 78026DF  19277.85530887  .00000619  00000-0  37746-3 0  9992
2 12262  98.8587  39.7043 0110607 269.2763 211.1154 14.06742002959628
0 DELTA 1 DEB
1 12263U 78026DG  19277.65400141  .00000779  00000-0  11179-2 0  9998
2 12263  98.9136 325.0914 0445870 259.5307  95.5296 13.24434091845199
0 DELTA 1 DEB
1 12263U 78026DG  19276.67194065 +.00000763 +00000-0 +10967-2 0  9991
2 12263 098.9138 324.2472 0445849 261.9348 093.0978 13.24432319844751
0 DELTA 1 DEB
1 12265U 78026DJ  19276.93664985 +.00000788 +00000-0 +37603-3 0  9999
2 12265 098.6838 069.5668 0145419 330.4974 182.1050 14.16598025964922
0 DELTA 1 DEB
1 12266U 78026DK  19276.65776581 +.00000311 +00000-0 +25752-3 0  9999
2 12266 098.8016 163.6707 0156639 308.2233 050.4912 13.90445885943028
0 DELTA 1 DEB
1 12269U 78026DN  19276.91644507 +.00000400 +00000-0 +86090-4 0  9995
2 12269 097.9181 280.0723 0065263 015.9130 054.2086 14.62319032034126
0 DELTA 1 DEB
1 12269U 78026DN  19277.47959999  .00000393  00000-0  84708-4 0  9996
2 12269  97.9181 280.6123 0065223  14.1482 138.8416 14.62319515 34529
0 DELTA 1 DEB
1 12270U 78026DP  19276.88727250 +.00000003 +00000-0 +35120-4 0  9997
2 12270 098.8141 250.8071 0066753 348.6135 073.4975 13.90055853960105
0 DELTA 1 DEB
1 12270U 78026DP  19277.17526802 -.00000004  00000-0  30190-4 0  9994
2 12270  98.8142 251.0800 0066737 347.8301  74.6814 13.90055847960352
0 DELTA 1 DEB
1 12274U 76077DF  19277.52789076 -.00000041  00000-0  17096-4 0  9996
2 12274 102.0880 278.1183 0106659  54.5637  66.1545 12.22151607725192
0 DELTA 1 DEB
1 12274U 76077DF  19276.47179796 -.00000046 +00000-0 -30637-4 0  9993
2 12274 102.0880 277.1046 0106666 056.4506 099.6194 12.22151598724787
0 DELTA 1 DEB
1 12278U 78026DW  19276.76220917 +.00000410 +00000-0 +17691-3 0  9994
2 12278 099.1537 302.1547 0048625 254.2681 167.4037 14.29628511992075
0 DELTA 1 DEB
1 12278U 78026DW  19277.68288128  .00000405  00000-0  17499-3 0  9994
2 12278  99.1537 303.1220 0048663 251.5620 225.8418 14.29629353992425
0 DELTA 1 DEB
1 12279U 78026DX  19277.47092731  .00000542  00000-0  97865-4 0  9993
2 12279  98.8445 100.6546 0036070  15.2630 344.9653 14.70677769  3771
